SEMI-1P                 
1 66298U 25248F   26067.98298675  .00005101  00000+0  24113-3 0  9997
2 66298  45.4089 297.1314 0010303 192.9316 167.1308 15.20583753 19283
STARCLOUD-1             
1 66303U 25248L   26067.98149217  .00008636  00000+0  40464-3 0  9994
2 66303  45.4020 297.8511 0006021 202.4241 157.6383 15.20134222 19287
