[{"OBJECT_NAME":"SEMI-1P","OBJECT_ID":"2025-248F","EPOCH":"2026-03-08T23:35:30.055200","MEAN_MOTION":15.20583753,"ECCENTRICITY":0.00103031,"INCLINATION":45.4089,"RA_OF_ASC_NODE":297.1314,"ARG_OF_PERICENTER":192.9316,"MEAN_ANOMALY":167.1308,"EPHEMERIS_TYPE":0,"CLASSIFICATION_TYPE":"U","NORAD_CAT_ID":66298,"ELEMENT_SET_NO":999,"REV_AT_EPOCH":1928,"BSTAR":0.00024112625,"MEAN_MOTION_DOT":5.101e-5,"MEAN_MOTION_DDOT":0},{"OBJECT_NAME":"STARCLOUD-1","OBJECT_ID":"2025-248L","EPOCH":"2026-03-08T23:33:20.923488","MEAN_MOTION":15.20134222,"ECCENTRICITY":0.00060214,"INCLINATION":45.402,"RA_OF_ASC_NODE":297.8511,"ARG_OF_PERICENTER":202.4241,"MEAN_ANOMALY":157.6383,"EPHEMERIS_TYPE":0,"CLASSIFICATION_TYPE":"U","NORAD_CAT_ID":66303,"ELEMENT_SET_NO":999,"REV_AT_EPOCH":1928,"BSTAR":0.00040463937,"MEAN_MOTION_DOT":8.636e-5,"MEAN_MOTION_DDOT":0}]
